MALLIGYONG-1            
1 58400U 23179A   24060.16897772  .00005510  00000+0  24979-3 0  9992
2 58400  97.4189 308.6436 0007864 288.2964  71.7416 15.21221797 15145
